[{"OBJECT_NAME":"STARLINK-4470","OBJECT_ID":"2022-105H","EPOCH":"2026-03-09T16:19:57.988128","MEAN_MOTION":15.05645183,"ECCENTRICITY":0.00026506,"INCLINATION":97.6009,"RA_OF_ASC_NODE":311.1586,"ARG_OF_PERICENTER":84.6866,"MEAN_ANOMALY":275.4663,"EPHEMERIS_TYPE":0,"CLASSIFICATION_TYPE":"U","NORAD_CAT_ID":53655,"ELEMENT_SET_NO":999,"REV_AT_EPOCH":19329,"BSTAR":-2.7041053e-5,"MEAN_MOTION_DOT":-4.51e-6,"MEAN_MOTION_DDOT":0},{"OBJECT_NAME":"NAXING 1","OBJECT_ID":"2004-012B","EPOCH":"2026-03-09T22:31:20.183520","MEAN_MOTION":15.05443462,"ECCENTRICITY":0.00121665,"INCLINATION":98.0152,"RA_OF_ASC_NODE":92.9199,"ARG_OF_PERICENTER":69.4128,"MEAN_ANOMALY":290.8402,"EPHEMERIS_TYPE":0,"CLASSIFICATION_TYPE":"U","NORAD_CAT_ID":28221,"ELEMENT_SET_NO":999,"REV_AT_EPOCH":19231,"BSTAR":0.00025838798,"MEAN_MOTION_DOT":3.649e-5,"MEAN_MOTION_DDOT":0}]
